2026-106A               
1 69097U 26106A   26135.89550219  .00000498  00000+0  33805-4 0  9995
2 69097  97.5094 218.5703 0012926 275.6985  84.2771 15.10801700   119
