{
  "norad_id": 69097,
  "name": "2026-106A",
  "history": [
    {
      "epoch": "2026-05-15T21:29:31.389216Z",
      "apogee_km": 542.6881940698077,
      "perigee_km": 524.819297637996,
      "latitude_deg": 2.2310123430439292e-05,
      "longitude_deg": 22.569124139486703,
      "height_km": 535.9489150682193,
      "semi_major_axis_km": 6911.8907458539015,
      "eccentricity": 0.00129262,
      "inclination_deg": 97.5094,
      "raan_deg": 218.5703,
      "arg_perigee_deg": 275.6985,
      "mean_anomaly_deg": 84.2771,
      "mean_motion_rev_day": 15.108017
    }
  ]
}